#dP2021  6 29  0  0  0.00000000      96 __u+U ITR00 EXT  IAC
## 2164 172800.00000000   900.00000000 59394 0.0000000000000
+  116   C06C07C08C09C10C11C12C13C14C16C19C20C21C22C23C24C25
+        C26C27C28C29C30C32C33C34C35C36C37C38C39C40C41C42C43
+        C44C45C46E01E02E03E04E05E07E08E09E11E12E13E14E15E18
+        E19E21E24E25E26E27E30E31E33E36G01G02G03G04G05G06G07
+        G08G09G10G12G13G14G15G16G17G18G19G20G21G22G23G24G25
+        G26G27G28G29G30G31G32J01J02J03R01R02R03R04R05R07R08
+        R09R11R12R13R14R15R16R17R18R19R20R21R22R24  0  0  0
++         8 12  8 10  8  9  7  9  8 10  9  9  9  9  9  8  8
++         8  8  9  9  9  9  8  9 10  8  8  9 10  9  9  9  9
++         9  9  8  8  8  7  7  8  7  8  7  8  7  7 10  8  7
++         7  7  7  7  9  8  7  8  8  7  7  6  7  7  8  6  7
++         8  8  8  7  8  8  8  7  8  8  7  8  8  8  9  7  8
++         8  7  8  9  7  8  7 11 10  9  7  9  7  8  8  9  8
++         9  8  8  8  7  9  9 10  8  9  9  7 10  8  0  0  0
%c M  cc GPS ccc cccc cccc cccc cccc ccccc ccccc ccccc ccccc
%c cc cc ccc ccc cccc cccc cccc cccc ccccc ccccc ccccc ccccc
%f  0.0000000  0.000000000  0.00000000000  0.000000000000000
%f  0.0000000  0.000000000  0.00000000000  0.000000000000000
%i    0    0    0    0      0      0      0      0         0
%i    0    0    0    0      0      0      0      0         0
/* IAC                                ULTRA-RAPID PREDICTION
/* S/V CLOCKS ARE ALIGNED TO GNSS TIME                      
/* G:C1WC2W R:C1PC2P E:C1XC5X C:C2IC6I J:C1CC2S             
/* PCV:IGS14_2148 OL/AL:FES2004  NONE     YN ORB:CoN CLK:CoN
*  2021 06 29  2 15  0.00000000
PC06  -7485.663867  26074.324910 -31677.836991    560.225002
PC07 -21484.948858  27116.786470  24023.015306    151.462480
PC08 -15230.112225  39144.252164   5669.957911   -898.461810
PC09   5899.156153  34008.694346 -23606.708631    413.001939
PC10  -7002.489061  28242.991649  30605.279702    -24.457289
PC11 -16733.502388 -22291.493898    780.177555    427.289581
PC12  -3855.907148 -22663.244042 -15777.286546    828.431791
PC13  -7713.838566  41198.323654  -5616.597228    317.429844
PC14 -15516.116420 -11904.925534  19909.130820    855.243440
PC16  -4659.310255  27551.384951 -31381.247106   -929.203801
PC19  23588.888828   6291.626574 -13510.926898    889.862193
PC20   7059.561327  14789.812367 -22573.737920   -860.845064
PC21  14651.641411 -14848.607595  18569.157878   -935.031006
PC22  27009.533585  -6067.811108   3671.140259   -948.837825
PC23 -18518.059526  10815.035927 -17844.016747   -951.713395
PC24   -167.506963 -24366.431859 -13585.219651   -914.511613
PC25 -13936.992033  -8611.850056 -22591.075392   -893.803963
PC26  11700.450818 -25223.763274   2150.914358    886.079378
PC27  -4744.621467  17876.173209  20868.641605    555.947171
PC28 -17778.341962    888.264910  21486.981428    -56.755055
PC29  20972.623633  15790.756016  -9474.310639    412.476908
PC30  11507.110439  23936.345474   8524.393787    472.302305
PC32 -14534.844325  14946.044079 -18526.123159   -924.146601
PC33 -23535.563237  -6268.732088  13609.232269   -938.992836
PC34 -12007.672221 -23957.997375  -7837.652036   -639.804868
PC35  17958.776102  -1203.272623 -21327.712402   -211.369550
PC36  13540.451181   9339.965618  22571.541796   -729.555975
PC37 -12782.948483  24629.204199  -3005.731135   -869.694093
PC38 -14063.573000  39614.809402   4124.671575    158.317087
PC39  -1694.315274  28427.133590 -31024.815213     32.071900
PC40 -15503.589858  23234.232229  31563.938450    175.535929
PC41 -27068.685627   5911.641001  -3282.818296   -952.616314
PC42  -6130.393389 -15081.528959  22708.193849   -915.635488
PC43 -20830.778965 -16292.100397   8931.643642   -797.795377
PC44   4396.435755 -17999.937294 -20889.409027    263.258024
PC45  18415.057743 -11007.724835  17846.798102    479.719334
PC46    936.788168  23883.017237  14439.800540    202.763812
PE01 -24365.077553  16225.252878  -4383.702089  -1139.182090
PE02  24329.754223 -16301.938585   4263.777746    229.346703
PE03  22208.225652  -5878.333285  18679.589380   -447.052236
PE04  -3458.487756  16876.197589 -24060.354530   -802.371325
PE05  28194.033650   8745.381107   2236.817048   -269.256024
PE07 -17671.499696 -18121.294533  15347.219428   -555.485283
PE08   2971.875813 -16874.897075  24142.497278   5978.539000
PE09  17981.719931  17902.107812 -15249.117695   5617.853542
PE11  10386.110647  26353.161962  -8580.238228   5789.544011
PE12  -2350.704743  27411.555620  10890.243697   5136.813356
PE13 -10201.783625 -26563.748709   8159.737697    418.353292
PE14 -21837.131363 -11890.887324   3024.305901  -1482.388188
PE15   2205.508735 -27438.738586 -10889.658347    806.268619
PE18  27526.616384   3829.136759 -15473.170529  -1624.106886
PE19 -23677.209274   4103.240168 -17273.262513    313.971975
PE21 -22053.137233    993.025415 -19716.104952   -673.323257
PE24   6018.623921  16143.541659  24062.372501   -980.059250
PE25  21955.732341   -800.095727  19844.797760   -538.381741
PE26 -16747.288343  -9144.086981  22624.376727   1639.049175
PE27  -6925.356152 -15494.636446 -24244.910610    -64.432319
PE30  13123.562433 -22736.695273 -13671.257235   2825.740196
PE31 -12156.316307  22763.771107  14506.101928   -482.704607
PE33 -13289.370172  12152.235437  23487.701942   -468.450616
PE36  16579.938964  10041.179519 -22372.221568   -227.357359
PG01 -13159.828335  11926.573152  19362.301847    644.046777
PG02  13269.792043  13586.829508 -17892.764329   -615.873017
PG03 -23444.923194  12300.666798    980.520581   -205.344716
PG04 -17881.380317   4424.578644 -19148.609893   -201.162297
PG05  23010.690712  -3070.964301 -13230.633609    -46.349577
PG06   7143.160297  22881.109620 -11325.146287     32.947563
PG07  -6920.023552  23619.336969  -8947.885014    189.981297
PG08 -23479.353992  -3819.099373  12113.091844    -26.862489
PG09  -7418.219621  13507.899637 -21692.455891   -353.313047
PG10    913.941316 -16741.310765  20649.692734   -151.706481
PG12  24390.575405 -10140.422912   1689.808835    -61.457941
PG13  22648.544422  12511.863257   6182.061185    150.939671
PG14  -1570.527086  16889.117967  20423.291137     59.344132
PG15  23848.750427   1156.372460  11622.202593   -139.138811
PG16 -20460.144213  -3588.701674 -17056.566282   -348.780090
PG17   6960.716441  19002.040207  17626.199425    465.775698
PG18   5418.638354 -25127.129775  -6544.699831    344.250949
PG19  14990.195972  19520.060705   9872.722287     19.531900
PG20  19755.511660   1034.542219 -17574.431932    520.702040
PG21 -15383.399654   3206.114372  22084.915649    128.044972
PG22 -23439.637220   7326.481849  10045.742059   -576.615967
PG23  12535.113116 -18712.465404  14010.862345     91.315970
PG24  14863.830466  -6829.411337  20612.425165    153.313505
PG25  18178.298247 -17202.704606  -8737.474614    164.318230
PG26 -12194.024082 -10578.677276 -21181.232602    104.252696
PG27 -23630.864265 -12324.485250   2238.248728   -154.722264
PG28   4514.923234  14600.896151  22280.919565    546.732287
PG29   9182.319157 -11550.579442 -22135.145013   -371.843102
PG30   1255.643457  26225.048612   3110.120428   -444.669355
PG31  -8556.319554 -21141.760223 -13292.639102   -125.721774
PG32 -10710.464336 -18930.345367  15476.222977     16.590893
PJ01 -32735.075747  15118.628063 -17182.744942   -404.895857
PJ02 -28864.445599  30669.157963   3245.950399     -0.479189
PJ03 -24515.443219  24281.525050  29308.293561     -9.457746
PR01 -17831.831111   7374.428087 -16669.156199     81.561068
PR02   3491.444234  10963.134629 -22715.450427    484.104721
PR03  20223.150173   7594.832183 -13478.048518     38.533951
PR04  25307.248004     29.654475   3206.929088     93.419307
PR05  16321.413700  -7474.626966  18126.484243     74.401938
PR07 -20689.104504  -7424.096898  13020.040142    -42.194689
PR08 -25319.167162    -17.149394  -3124.616872    -59.724725
PR09   4763.117410 -20595.952467 -14311.896096      0.275390
PR11 -15536.267058   8253.926776 -18450.512991    -16.408635
PR12 -14860.026706  20576.045522  -2597.312164    241.040773
PR13  -5356.336919  20741.316366  13832.498270    -56.999269
PR14   7766.007674   8294.263254  22851.074238     65.875487
PR15  15880.140014  -8469.246556  18101.613236    102.979577
PR16  13963.951266 -21211.707120   1511.941392    -17.101363
PR17  14079.441389  19429.232610  -8714.597401    436.640955
PR18  13246.345846   5538.546986 -21063.050149     81.635406
PR19   6256.260905 -10311.138353 -22483.412810   -149.554651
PR20  -5900.029435 -22976.045360  -9433.513797    -51.647136
PR21 -14185.739218 -18724.068574   9900.769491   -220.022139
PR22 -12932.837330  -4731.046588  21472.496278   -120.042164
PR24   6512.526988  23091.712947   8693.252495     48.381086
EOF
